{"type": "FeatureCollection", "features": [ {"type": "Feature", "properties": {"norad_id": 17070, "name": "POLAR BEAR", "group": "nnss", "lat": 43.823704231108806, "lon": -175.72889701990624, "alt_km": 974.2958130237621, "timestamp": "2025-12-09T11:33:55.068289+00:00", "meta": {"OBJECT_NAME": "POLAR BEAR", "OBJECT_ID": "1986-088A", "EPOCH": "2025-12-09T03:11:16.321920", "MEAN_MOTION": 13.75249676, "ECCENTRICITY": 0.0040751, "INCLINATION": 89.6177, "RA_OF_ASC_NODE": 183.918, "ARG_OF_PERICENTER": 129.7063, "MEAN_ANOMALY": 347.5564, "EPHEMERIS_TYPE": 0, "CLASSIFICATION_TYPE": "U", "NORAD_CAT_ID": 17070, "ELEMENT_SET_NO": 999, "REV_AT_EPOCH": 95929, "BSTAR": 0.00014111, "MEAN_MOTION_DOT": 1.48e-06, "MEAN_MOTION_DDOT": 0}, "tle": {"line1": "1 17070U 86088A   25343.13282780  .00000148  00000+0  14111-3 0  9996", "line2": "2 17070  89.6177 183.9180 0040751 129.7063 347.5564 13.75249676959298"}}, "geometry": {"type": "Point", "coordinates": [-175.72889701990624, 43.823704231108806]}}, {"type": "Feature", "properties": {"norad_id": 18361, "name": "OSCAR 27", "group": "nnss", "lat": -61.796609240737624, "lon": 79.84867133723226, "alt_km": 1065.277395642096, "timestamp": "2025-12-09T11:33:55.068300+00:00", "meta": {"OBJECT_NAME": "OSCAR 27", "OBJECT_ID": "1987-080A", "EPOCH": "2025-12-09T04:43:49.250784", "MEAN_MOTION": 13.4490558, "ECCENTRICITY": 0.010266, "INCLINATION": 90.3742, "RA_OF_ASC_NODE": 79.1398, "ARG_OF_PERICENTER": 234.0617, "MEAN_ANOMALY": 125.0974, "EPHEMERIS_TYPE": 0, "CLASSIFICATION_TYPE": "U", "NORAD_CAT_ID": 18361, "ELEMENT_SET_NO": 999, "REV_AT_EPOCH": 87509, "BSTAR": 0.00027786, "MEAN_MOTION_DOT": 1.76e-06, "MEAN_MOTION_DDOT": 0}, "tle": {"line1": "1 18361U 87080A   25343.19709781  .00000176  00000+0  27786-3 0  9997", "line2": "2 18361  90.3742  79.1398 0102660 234.0617 125.0974 13.44905580875097"}}, "geometry": {"type": "Point", "coordinates": [79.84867133723226, -61.796609240737624]}}, {"type": "Feature", "properties": {"norad_id": 18362, "name": "OSCAR 29", "group": "nnss", "lat": -44.31117497114398, "lon": 79.9756453878632, "alt_km": 1059.1172227872512, "timestamp": "2025-12-09T11:33:55.068310+00:00", "meta": {"OBJECT_NAME": "OSCAR 29", "OBJECT_ID": "1987-080B", "EPOCH": "2025-12-09T04:56:41.186400", "MEAN_MOTION": 13.44447438, "ECCENTRICITY": 0.0103776, "INCLINATION": 90.3753, "RA_OF_ASC_NODE": 79.5987, "ARG_OF_PERICENTER": 257.4352, "MEAN_ANOMALY": 162.9718, "EPHEMERIS_TYPE": 0, "CLASSIFICATION_TYPE": "U", "NORAD_CAT_ID": 18362, "ELEMENT_SET_NO": 999, "REV_AT_EPOCH": 87462, "BSTAR": 0.00025543, "MEAN_MOTION_DOT": 1.61e-06, "MEAN_MOTION_DDOT": 0}, "tle": {"line1": "1 18362U 87080B   25343.20603225  .00000161  00000+0  25543-3 0  9999", "line2": "2 18362  90.3753  79.5987 0103776 257.4352 162.9718 13.44447438874629"}}, "geometry": {"type": "Point", "coordinates": [79.9756453878632, -44.31117497114398]}}, {"type": "Feature", "properties": {"norad_id": 19070, "name": "OSCAR 23", "group": "nnss", "lat": -72.61617480215533, "lon": 17.31932035555828, "alt_km": 1180.7817196576634, "timestamp": "2025-12-09T11:33:55.068320+00:00", "meta": {"OBJECT_NAME": "OSCAR 23", "OBJECT_ID": "1988-033A", "EPOCH": "2025-12-09T03:13:56.988768", "MEAN_MOTION": 13.27786357, "ECCENTRICITY": 0.0189226, "INCLINATION": 90.3215, "RA_OF_ASC_NODE": 16.2809, "ARG_OF_PERICENTER": 189.9548, "MEAN_ANOMALY": 236.6533, "EPHEMERIS_TYPE": 0, "CLASSIFICATION_TYPE": "U", "NORAD_CAT_ID": 19070, "ELEMENT_SET_NO": 999, "REV_AT_EPOCH": 82205, "BSTAR": 0.00017797, "MEAN_MOTION_DOT": 9.7e-07, "MEAN_MOTION_DDOT": 0}, "tle": {"line1": "1 19070U 88033A   25343.13468737  .00000097  00000+0  17797-3 0  9994", "line2": "2 19070  90.3215  16.2809 0189226 189.9548 236.6533 13.27786357822051"}}, "geometry": {"type": "Point", "coordinates": [17.31932035555828, -72.61617480215533]}}, {"type": "Feature", "properties": {"norad_id": 19071, "name": "OSCAR 32", "group": "nnss", "lat": 32.24041226352602, "lon": 16.220319659699154, "alt_km": 1265.5428464275674, "timestamp": "2025-12-09T11:33:55.068346+00:00", "meta": {"OBJECT_NAME": "OSCAR 32", "OBJECT_ID": "1988-033B", "EPOCH": "2025-12-09T02:38:01.161024", "MEAN_MOTION": 13.27953293, "ECCENTRICITY": 0.0188061, "INCLINATION": 90.322, "RA_OF_ASC_NODE": 16.4119, "ARG_OF_PERICENTER": 176.8734, "MEAN_ANOMALY": 238.6698, "EPHEMERIS_TYPE": 0, "CLASSIFICATION_TYPE": "U", "NORAD_CAT_ID": 19071, "ELEMENT_SET_NO": 999, "REV_AT_EPOCH": 82217, "BSTAR": 0.00018385, "MEAN_MOTION_DOT": 1e-06, "MEAN_MOTION_DDOT": 0}, "tle": {"line1": "1 19071U 88033B   25343.10973566  .00000100  00000+0  18385-3 0  9992", "line2": "2 19071  90.3220  16.4119 0188061 176.8734 238.6698 13.27953293822174"}}, "geometry": {"type": "Point", "coordinates": [16.220319659699154, 32.24041226352602]}}, {"type": "Feature", "properties": {"norad_id": 19223, "name": "NOVA 2", "group": "nnss", "lat": -70.76766577964334, "lon": 78.23946141650403, "alt_km": 1183.4687841519253, "timestamp": "2025-12-09T11:33:55.068356+00:00", "meta": {"OBJECT_NAME": "NOVA 2", "OBJECT_ID": "1988-052A", "EPOCH": "2025-12-09T04:58:29.942400", "MEAN_MOTION": 13.22935312, "ECCENTRICITY": 0.0030883, "INCLINATION": 89.9871, "RA_OF_ASC_NODE": 78.2768, "ARG_OF_PERICENTER": 26.4937, "MEAN_ANOMALY": 36.1047, "EPHEMERIS_TYPE": 0, "CLASSIFICATION_TYPE": "U", "NORAD_CAT_ID": 19223, "ELEMENT_SET_NO": 999, "REV_AT_EPOCH": 80901, "BSTAR": 0.00020977, "MEAN_MOTION_DOT": 9.7e-07, "MEAN_MOTION_DDOT": 0}, "tle": {"line1": "1 19223U 88052A   25343.20729100  .00000097  00000+0  20977-3 0  9991", "line2": "2 19223  89.9871  78.2768 0030883  26.4937  36.1047 13.22935312809012"}}, "geometry": {"type": "Point", "coordinates": [78.23946141650403, -70.76766577964334]}}, {"type": "Feature", "properties": {"norad_id": 19419, "name": "OSCAR 25", "group": "nnss", "lat": 45.6180185748474, "lon": -159.73083197409204, "alt_km": 1131.464740410649, "timestamp": "2025-12-09T11:33:55.068373+00:00", "meta": {"OBJECT_NAME": "OSCAR 25", "OBJECT_ID": "1988-074A", "EPOCH": "2025-12-09T04:03:49.082976", "MEAN_MOTION": 13.42622336, "ECCENTRICITY": 0.0094313, "INCLINATION": 90.0349, "RA_OF_ASC_NODE": 20.2324, "ARG_OF_PERICENTER": 256.2044, "MEAN_ANOMALY": 169.1401, "EPHEMERIS_TYPE": 0, "CLASSIFICATION_TYPE": "U", "NORAD_CAT_ID": 19419, "ELEMENT_SET_NO": 999, "REV_AT_EPOCH": 82592, "BSTAR": 0.00022176, "MEAN_MOTION_DOT": 1.37e-06, "MEAN_MOTION_DDOT": 0}, "tle": {"line1": "1 19419U 88074A   25343.16931809  .00000137  00000+0  22176-3 0  9996", "line2": "2 19419  90.0349  20.2324 0094313 256.2044 169.1401 13.42622336825927"}}, "geometry": {"type": "Point", "coordinates": [-159.73083197409204, 45.6180185748474]}}, {"type": "Feature", "properties": {"norad_id": 19420, "name": "OSCAR 31", "group": "nnss", "lat": 20.163724657383323, "lon": 20.569468146567488, "alt_km": 1144.6137959773605, "timestamp": "2025-12-09T11:33:55.068395+00:00", "meta": {"OBJECT_NAME": "OSCAR 31", "OBJECT_ID": "1988-074B", "EPOCH": "2025-12-09T04:38:54.524832", "MEAN_MOTION": 13.42583784, "ECCENTRICITY": 0.0092591, "INCLINATION": 90.0367, "RA_OF_ASC_NODE": 20.5819, "ARG_OF_PERICENTER": 250.2365, "MEAN_ANOMALY": 177.0861, "EPHEMERIS_TYPE": 0, "CLASSIFICATION_TYPE": "U", "NORAD_CAT_ID": 19420, "ELEMENT_SET_NO": 999, "REV_AT_EPOCH": 82603, "BSTAR": 0.00019416, "MEAN_MOTION_DOT": 1.21e-06, "MEAN_MOTION_DDOT": 0}, "tle": {"line1": "1 19420U 88074B   25343.19368663  .00000121  00000+0  19416-3 0  9999", "line2": "2 19420  90.0367  20.5819 0092591 250.2365 177.0861 13.42583784826031"}}, "geometry": {"type": "Point", "coordinates": [20.569468146567488, 20.163724657383323]}}]}